{
  "type": "FeatureCollection",
  "name": "warehouse_graph",
  "crs": {
    "type": "name",
    "properties": {
      "name": "urn:ogc:def:crs:EPSG::3857"
    }
  },
  "features": [
    {
      "type": "Feature",
      "properties": {
        "id": 0,
        "frame": "map"
      },
      "geometry": {
        "type": "Point",
        "coordinates": [-4.0, -9.35]
      }
    },
    {
      "type": "Feature",
      "properties": {
        "id": 1,
        "frame": "map"
      },
      "geometry": {
        "type": "Point",
        "coordinates": [-4.0, 0.65]
      }
    },
    {
      "type": "Feature",
      "properties": {
        "id": 2,
        "frame": "map"
      },
      "geometry": {
        "type": "Point",
        "coordinates": [-4.0, 8.65]
      }
    },
    {
      "type": "Feature",
      "properties": {
        "id": 3,
        "frame": "map"
      },
      "geometry": {
        "type": "Point",
        "coordinates": [1.0, 6.65]
      }
    },
    {
      "type": "Feature",
      "properties": {
        "id": 4,
        "frame": "map"
      },
      "geometry": {
        "type": "Point",
        "coordinates": [1.0, -4.35]
      }
    },
    {
      "type": "Feature",
      "properties": {
        "id": 5,
        "frame": "map"
      },
      "geometry": {
        "type": "Point",
        "coordinates": [-6.0, 6.65]
      }
    },
    {
      "type": "Feature",
      "properties": {
        "id": 6,
        "frame": "map"
      },
      "geometry": {
        "type": "Point",
        "coordinates": [-6.0, -4.35]
      }
    },
    {
      "type": "Feature",
      "properties": {
        "id": 7,
        "startid": 0,
        "endid": 1
      },
      "geometry": {
        "type": "MultiLineString",
        "coordinates": [[[-4.0, -9.35], [-4.0, 0.65]]]
      }
    },
    {
      "type": "Feature",
      "properties": {
        "id": 8,
        "startid": 1,
        "endid": 0
      },
      "geometry": {
        "type": "MultiLineString",
        "coordinates": [[[-4.0, 0.65], [-4.0, -9.35]]]
      }
    },
    {
      "type": "Feature",
      "properties": {
        "id": 9,
        "startid": 1,
        "endid": 2
      },
      "geometry": {
        "type": "MultiLineString",
        "coordinates": [[[-4.0, 0.65], [-4.0, 8.65]]]
      }
    },
    {
      "type": "Feature",
      "properties": {
        "id": 10,
        "startid": 2,
        "endid": 1
      },
      "geometry": {
        "type": "MultiLineString",
        "coordinates": [[[-4.0, 8.65], [-4.0, 0.65]]]
      }
    },
    {
      "type": "Feature",
      "properties": {
        "id": 11,
        "startid": 2,
        "endid": 3
      },
      "geometry": {
        "type": "MultiLineString",
        "coordinates": [[[-4.0, 8.65], [1.0, 6.65]]]
      }
    },
    {
      "type": "Feature",
      "properties": {
        "id": 12,
        "startid": 3,
        "endid": 2
      },
      "geometry": {
        "type": "MultiLineString",
        "coordinates": [[[1.0, 6.65], [-4.0, 8.65]]]
      }
    },
    {
      "type": "Feature",
      "properties": {
        "id": 13,
        "startid": 3,
        "endid": 4
      },
      "geometry": {
        "type": "MultiLineString",
        "coordinates": [[[1.0, 6.65], [1.0, -4.35]]]
      }
    },
    {
      "type": "Feature",
      "properties": {
        "id": 14,
        "startid": 4,
        "endid": 3
      },
      "geometry": {
        "type": "MultiLineString",
        "coordinates": [[[1.0, -4.35], [1.0, 6.65]]]
      }
    },
    {
      "type": "Feature",
      "properties": {
        "id": 15,
        "startid": 2,
        "endid": 5
      },
      "geometry": {
        "type": "MultiLineString",
        "coordinates": [[[-4.0, 8.65], [-6.0, 6.65]]]
      }
    },
    {
      "type": "Feature",
      "properties": {
        "id": 16,
        "startid": 5,
        "endid": 2
      },
      "geometry": {
        "type": "MultiLineString",
        "coordinates": [[[-6.0, 6.65], [-4.0, 8.65]]]
      }
    },
    {
      "type": "Feature",
      "properties": {
        "id": 17,
        "startid": 5,
        "endid": 6
      },
      "geometry": {
        "type": "MultiLineString",
        "coordinates": [[[-6.0, 6.65], [-6.0, -4.35]]]
      }
    },
    {
      "type": "Feature",
      "properties": {
        "id": 18,
        "startid": 6,
        "endid": 5
      },
      "geometry": {
        "type": "MultiLineString",
        "coordinates": [[[-6.0, -4.35], [-6.0, 6.65]]]
      }
    }
  ]
}
